GLOBALSTAR M084         
1 38040U 11080A   25258.04203074 -.00000105  00000+0 -82503-5 0  9997
2 38040  51.9998 134.9245 0000452  88.9066  52.1080 12.62268906634016
GLOBALSTAR M080         
1 38041U 11080B   25258.09495258 -.00000104  00000+0 -12842-5 0  9998
2 38041  52.0050 136.3871 0001021  48.7540 102.1066 12.62268940634145
GLOBALSTAR M082         
1 38042U 11080C   25258.27290887 -.00000100  00000+0  21328-4 0  9993
2 38042  52.0066  91.3138 0001098  65.2887 105.5004 12.62268669634878
GLOBALSTAR M092         
1 38043U 11080D   25257.98923501 -.00000093  00000+0  57779-4 0  9997
2 38043  52.0078 182.5605 0000523  61.1759  19.0929 12.62265846633293
GLOBALSTAR M090         
1 38044U 11080E   25258.29932164 -.00000112  00000+0 -45015-4 0  9991
2 38044  52.0115  85.0999 0000978  85.1317  85.4661 12.62262385634992
GLOBALSTAR M086         
1 38045U 11080F   25258.24571403 -.00000105  00000+0 -75300-5 0  9995
2 38045  51.9888  85.6399 0001413 130.8010  40.4194 12.62276908634933
GLOBALSTAR M097         
1 39072U 13005A   25258.31445313 -.00000112  00000+0 -43590-4 0  9996
2 39072  52.0075   0.0740 0000784 105.4498 254.6455 12.62265645582198
GLOBALSTAR M093         
1 39073U 13005B   25258.28840740 -.00000095  00000+0  50837-4 0  9997
2 39073  52.0136 353.3960 0000997 103.8476 256.2502 12.62264249582144
